ONEWEB-0628             
1 55169U 23004AF  24222.72295499  .00000505  00000+0  13686-2 0  9999
2 55169  87.8943 125.3621 0002759  76.1275 284.0161 13.12442325 79306
ONEWEB-0629             
1 55170U 23004AG  24223.14118467 -.00000029  00000+0 -10653-3 0  9992
2 55170  87.9186 140.5077 0002288  71.0361 289.1019 13.19269384 78552
ONEWEB-0631             
1 55171U 23004AH  24222.73788363  .00000068  00000+0  14046-3 0  9996
2 55171  87.9130 110.0850 0002025  98.1332 262.0030 13.18688298 80521
ONEWEB-0709             
1 55172U 23004AJ  24223.36753955 -.00000115  00000+0 -36097-3 0  9991
2 55172  87.8995 155.6485 0001629 109.8390 250.2913 13.11416395 77303
ONEWEB-0710             
1 55173U 23004AK  24223.14453008  .00000099  00000+0  22237-3 0  9994
2 55173  87.9185 140.5241 0002023  82.1483 277.9878 13.17651853 78554
ONEWEB-0711             
1 55174U 23004AL  24223.18613289  .00000503  00000+0  13832-2 0  9998
2 55174  87.8996 155.6534 0002923  82.2083 277.9377 13.11416709 77244
ONEWEB-0713             
1 55175U 23004AM  24222.82330296  .00000456  00000+0  12500-2 0  9991
2 55175  87.8994 155.7332 0002433  82.1946 277.9458 13.11413560 77177
ONEWEB-0715             
1 55176U 23004AN  24223.35231359  .00000351  00000+0  95365-3 0  9996
2 55176  87.8996 155.6288 0002102  89.6031 270.5338 13.11417355 77294
